SL-16 R/B               
1 25400U 98043G   25354.86730979  .00000026  00000+0  29783-4 0  9993
2 25400  98.8138 302.7312 0008868 240.3471 119.6826 14.26027256427752
SL-16 R/B               
1 25407U 98045B   25355.17014549  .00000189  00000+0  11933-3 0  9992
2 25407  71.0115 346.6972 0006473 162.8276 197.3068 14.16175527415984
ISS (ZARYA)             
1 25544U 98067A   25354.66673767  .00007293  00000+0  13711-3 0  9993
2 25544  51.6321 103.2234 0003164 277.4707  82.5922 15.49686708544086
CZ-4B R/B               
1 25732U 99025C   25355.06778978  .00000049  00000+0  44639-4 0  9998
2 25732  98.6755  36.1612 0036643 209.6182 179.7199 14.18245565377023
OKEAN-O                 
1 25860U 99039A   25355.17209101  .00000543  00000+0  78335-4 0  9993
2 25860  97.9590  50.8005 0001001 112.1392 247.9926 14.80174815422771
SL-16 R/B               
1 25861U 99039B   25355.15908419  .00000412  00000+0  59203-4 0  9998
2 25861  98.0114  49.3105 0015561 148.0584 212.1575 14.81597378425239
DELTA 2 R/B             
1 25876U 99041E   25355.13993418  .00000588  00000+0  13483-3 0  9991
2 25876  51.7609 254.9129 0504528 116.5231 248.8336 14.11421328351935
HELIOS 1B               
1 25977U 99064A   25355.14581396  .00001221  00000+0  14178-3 0  9994
2 25977  98.1757 250.0608 0001211  33.1812 326.9479 14.87311394673583
TERRA                   
1 25994U 99068A   25355.14950764  .00000328  00000+0  76173-4 0  9997
2 25994  97.9736  46.5249 0003520  77.7738 295.6069 14.60910409383613
SL-16 R/B               
1 26070U 00006B   25355.16514931 -.00000100  00000+0 -26522-4 0  9994
2 26070  71.0018 262.9424 0018588 297.1999  62.7229 14.15808321337441
TITAN 4B R/B            
1 26474U 00047B   25355.16198728  .00002247  00000+0  14863-3 0  9995
2 26474  67.9897 261.2004 0038317 134.4421 225.9874 15.08836226381063
ENVISAT                 
1 27386U 02009A   25352.94754304  .00000081  00000+0  39999-4 0  9991
2 27386  98.3609 303.5309 0001126  84.8976 298.2993 14.39001403247569
